ONEWEB-0716             
1 55177U 23004AP  24122.37022426 -.00000351  00000+0 -93606-3 0  9998
2 55177  87.9191 160.4839 0001924  97.8326 262.3024 13.17649711 65284
ONEWEB-0717             
1 55178U 23004AQ  24122.35281669  .00000132  00000+0  30774-3 0  9995
2 55178  87.9189 160.4524 0002731  75.5557 284.5877 13.17647349 65332
ONEWEB-0719             
1 55179U 23004AR  24122.36390305 -.00000106  00000+0 -30542-3 0  9991
2 55179  87.9189 160.4369 0001788  90.8158 269.3178 13.17648881 65289
ONEWEB-0534             
1 55797U 23029B   24122.26768974  .00000075  00000+0  15196-3 0  9995
2 55797  87.9201  69.0667 0001792  83.0132 277.1205 13.20769796 58593
ONEWEB-0562             
1 55799U 23029D   24122.56440488  .00000103  00000+0  22150-3 0  9997
2 55799  87.9199  68.9913 0001954  47.8397 312.2902 13.20770978 59314
